{
  "norad_id": 58081,
  "name": "STARLINK-30602",
  "history": [
    {
      "epoch": "2026-03-28T17:11:05.798976Z",
      "apogee_km": 496.5982109215711,
      "perigee_km": 494.46778564230317,
      "latitude_deg": -3.689286644974593e-05,
      "longitude_deg": -112.45159817286435,
      "height_km": 495.3239920391441,
      "semi_major_axis_km": 6873.669998281936,
      "eccentricity": 0.00015497,
      "inclination_deg": 43.0034,
      "raan_deg": 331.4551,
      "arg_perigee_deg": 269.2804,
      "mean_anomaly_deg": 90.7868,
      "mean_motion_rev_day": 15.23420323
    }
  ]
}