{"fetched_at":"2026-03-29T16:36:15Z","count":15609,"tles":[{"name":"STARLINK-30602","line1":"1 58081U 23160G   26087.71603934  .00026199  00000+0  10856-2 0  9998","line2":"2 58081  43.0034 331.4551 0001549 269.2804  90.7868 15.23420323135844","category":"Starlink"}]}